     2              NAVIGATION DATA                         RINEX VERSION / TYPE
CCRINEXN V1.6.0 UX  CDDIS               18-MAR-15 15:31     PGM / RUN BY / DATE 
IGS BROADCAST EPHEMERIS FILE                                COMMENT             
    0.2142D-07  0.7451D-08 -0.1192D-06  0.0000D+00          ION ALPHA           
    0.1229D+06  0.0000D+00 -0.2621D+06  0.1966D+06          ION BETA            
   -0.186264514923D-08 0.888178419700D-15   319488     1836 DELTA-UTC: A0,A1,T,W
    16                                                      LEAP SECONDS        
                                                            END OF HEADER       
15 15  3 17  0  0  0.0-0.238078180700D-03-0.227373675443D-11 0.000000000000D+00
    0.990000000000D+02-0.220000000000D+02 0.558380401642D-08 0.316475876891D+00
   -0.107660889625D-05 0.711808505002D-02 0.543706119061D-05 0.515359973907D+04
    0.172800000000D+06 0.119209289551D-06 0.136883522091D+01 0.106170773506D-06
    0.933585799047D+00 0.259750000000D+03 0.386106821733D+00-0.874107838672D-08
   -0.269654089318D-09 0.100000000000D+01 0.183600000000D+04 0.000000000000D+00
    0.200000000000D+01 0.000000000000D+00-0.107102096081D-07 0.990000000000D+02
    0.166386000000D+06 0.400000000000D+01 0.000000000000D+00 0.000000000000D+00
16 15  3 17  0  0  0.0-0.147478654981D-03 0.341060513165D-11 0.000000000000D+00
    0.700000000000D+02 0.818125000000D+02 0.412052877942D-08 0.201607423788D+01
    0.439211726189D-05 0.819341500755D-02 0.594370067120D-05 0.515376808357D+04
    0.172800000000D+06-0.162050127983D-06-0.271073071615D+01 0.221654772759D-06
    0.990131572189D+00 0.282781250000D+03 0.255167660254D+00-0.805640701026D-08
    0.294655130712D-09 0.100000000000D+01 0.183600000000D+04 0.000000000000D+00
    0.200000000000D+01 0.000000000000D+00-0.102445483208D-07 0.700000000000D+02
    0.169440000000D+06 0.000000000000D+00 0.000000000000D+00 0.000000000000D+00
17 15  3 17  0  0  0.0-0.161375850439D-03-0.216004991671D-11 0.000000000000D+00
    0.580000000000D+02-0.812187500000D+02 0.463197880052D-08 0.109945458298D+01
   -0.425241887569D-05 0.101160515333D-01 0.474229454994D-05 0.515373073769D+04
    0.172800000000D+06-0.188127160072D-06-0.168301436616D+01 0.838190317154D-07
    0.971334786484D+00 0.298562500000D+03-0.202143291412D+01-0.850035419830D-08
   -0.430375068916D-09 0.100000000000D+01 0.183600000000D+04 0.000000000000D+00
    0.200000000000D+01 0.000000000000D+00-0.107102096081D-07 0.580000000000D+02
    0.172800000000D+06 0.000000000000D+00 0.000000000000D+00 0.000000000000D+00
18 15  3 17  0  0  0.0 0.386841595173D-03 0.284217094304D-11 0.000000000000D+00
    0.460000000000D+02 0.466562500000D+02 0.525343311229D-08 0.259231696564D+01
    0.234693288803D-05 0.158758971374D-01 0.845827162266D-05 0.515376259232D+04
    0.172800000000D+06 0.111758708954D-06 0.349095917429D+00-0.197440385819D-06
    0.925566695099D+00 0.194562500000D+03-0.198429219778D+01-0.816462580372D-08
    0.544308386915D-09 0.000000000000D+00 0.183600000000D+04 0.000000000000D+00
    0.200000000000D+01 0.000000000000D+00-0.111758708954D-07 0.460000000000D+02
    0.172740000000D+06 0.400000000000D+01 0.000000000000D+00 0.000000000000D+00
19 15  3 17  0  0  0.0-0.504156108946D-03-0.136424205266D-11 0.000000000000D+00
    0.103000000000D+03-0.733750000000D+02 0.465447959204D-08 0.308266728181D+00
   -0.375322997570D-05 0.110632911092D-01 0.404566526413D-05 0.515370751953D+04
    0.172800000000D+06 0.242143869400D-07-0.163313506389D+01 0.122934579849D-06
    0.968412680767D+00 0.300968750000D+03 0.523307516899D+00-0.852856953487D-08
   -0.392873507616D-09 0.100000000000D+01 0.183600000000D+04 0.000000000000D+00
    0.280000000000D+01 0.000000000000D+00-0.149011611938D-07 0.103000000000D+03
    0.165618000000D+06 0.400000000000D+01 0.000000000000D+00 0.000000000000D+00
21 15  3 17  0  0  0.0-0.427058432251D-03-0.386535248253D-11 0.000000000000D+00
    0.810000000000D+02-0.866875000000D+02 0.461162066394D-08-0.264681888277D+01
   -0.457838177681D-05 0.223978232825D-01 0.117961317301D-04 0.515360694504D+04
    0.172800000000D+06 0.288709998131D-06-0.694146638154D+00-0.707805156708D-07
    0.933789277786D+00 0.130468750000D+03-0.193461507664D+01-0.775067998979D-08
    0.792890169915D-10 0.100000000000D+01 0.183600000000D+04 0.000000000000D+00
    0.280000000000D+01 0.000000000000D+00-0.116415321827D-07 0.810000000000D+02
    0.171396000000D+06 0.400000000000D+01 0.000000000000D+00 0.000000000000D+00
22 15  3 17  0  0  0.0 0.329227186739D-03 0.409272615798D-11 0.000000000000D+00
    0.980000000000D+02 0.518437500000D+02 0.545844165172D-08 0.213344458255D+01
    0.269152224064D-05 0.762588065118D-02 0.832416117191D-05 0.515369496346D+04
    0.172800000000D+06-0.391155481338D-07 0.350401454781D+00-0.219792127609D-06
    0.923371258828D+00 0.198125000000D+03-0.206511290353D+01-0.846463830045D-08
    0.563594904561D-09 0.100000000000D+01 0.183600000000D+04 0.000000000000D+00
    0.280000000000D+01 0.000000000000D+00-0.176951289177D-07 0.980000000000D+02
    0.165630000000D+06 0.400000000000D+01 0.000000000000D+00 0.000000000000D+00
23 15  3 17  0  0  0.0-0.955588184297D-04-0.261479726760D-11 0.000000000000D+00
    0.800000000000D+02-0.228437500000D+02 0.517378693756D-08-0.124446767616D+00
   -0.109337270260D-05 0.985429564025D-02 0.570714473724D-05 0.515364285278D+04
    0.172800000000D+06 0.502914190292D-07 0.141999817674D+01 0.134110450745D-06
    0.948707251774D+00 0.263156250000D+03-0.270659015767D+01-0.860928718280D-08
   -0.265011038773D-09 0.100000000000D+01 0.183600000000D+04 0.000000000000D+00
    0.200000000000D+01 0.000000000000D+00-0.200234353542D-07 0.800000000000D+02
    0.171870000000D+06 0.400000000000D+01 0.000000000000D+00 0.000000000000D+00
24 15  3 17  0  0  0.0-0.450946390629D-04-0.682121026330D-12 0.000000000000D+00
    0.940000000000D+02 0.303437500000D+02 0.455054660620D-08-0.837069568107D+00
    0.155903398991D-05 0.316733738873D-02 0.124908983707D-04 0.515368591690D+04
    0.172800000000D+06 0.577419996262D-07 0.244723772662D+01-0.335276126862D-07
    0.954204949118D+00 0.134156250000D+03 0.320904757508D+00-0.803319188947D-08
   -0.218223369930D-09 0.100000000000D+01 0.183600000000D+04 0.000000000000D+00
    0.200000000000D+01 0.000000000000D+00 0.232830643654D-08 0.940000000000D+02
    0.172800000000D+06 0.000000000000D+00 0.000000000000D+00 0.000000000000D+00
25 15  3 17  0  0  0.0-0.115181319416D-04-0.318323145621D-11 0.000000000000D+00
    0.290000000000D+02 0.981562500000D+02 0.433660929389D-08-0.282274202471D+01
    0.499188899994D-05 0.436453369912D-02 0.632926821709D-05 0.515370992279D+04
    0.172800000000D+06-0.409781932831D-07-0.277515289436D+01-0.188127160072D-06
    0.978155116841D+00 0.264687500000D+03 0.672108052318D+00-0.814676770489D-08
    0.365729529994D-09 0.100000000000D+01 0.183600000000D+04 0.000000000000D+00
    0.200000000000D+01 0.000000000000D+00 0.512227416039D-08 0.290000000000D+02
    0.172800000000D+06 0.000000000000D+00 0.000000000000D+00 0.000000000000D+00
29 15  3 17  0  0  0.0 0.598324462771D-03 0.250111042988D-11 0.000000000000D+00
    0.450000000000D+02-0.840312500000D+02 0.451697390602D-08-0.238709881748D+01
   -0.450760126114D-05 0.137743353844D-02 0.373646616936D-05 0.515379241753D+04
    0.172800000000D+06 0.111758708954D-07-0.167371048074D+01 0.689178705216D-07
    0.972159310520D+00 0.312281250000D+03-0.755686563459D+00-0.834999092092D-08
   -0.388587606537D-09 0.100000000000D+01 0.183600000000D+04 0.000000000000D+00
    0.200000000000D+01 0.000000000000D+00-0.977888703346D-08 0.450000000000D+02
    0.172800000000D+06 0.000000000000D+00 0.000000000000D+00 0.000000000000D+00
30 15  3 17  0  0  0.0-0.794553197920D-04 0.261479726760D-11 0.000000000000D+00
    0.380000000000D+02 0.450937500000D+02 0.447625788268D-08-0.149253331387D+01
    0.215508043766D-05 0.109690229874D-02 0.117737799883D-04 0.515376549721D+04
    0.172800000000D+06 0.186264514923D-07 0.253719122660D+01-0.745058059692D-08
    0.956753541128D+00 0.152812500000D+03 0.287209244405D+01-0.796997483859D-08
   -0.125719522437D-09 0.100000000000D+01 0.183600000000D+04 0.000000000000D+00
    0.200000000000D+01 0.000000000000D+00 0.325962901115D-08 0.380000000000D+02
    0.165618000000D+06 0.400000000000D+01 0.000000000000D+00 0.000000000000D+00
31 15  3 17  0  0  0.0 0.320978462696D-03-0.909494701773D-12 0.000000000000D+00
    0.800000000000D+02 0.212187500000D+02 0.411267130927D-08-0.178368668299D+01
    0.102818012237D-05 0.823734572623D-02 0.125244259834D-04 0.515375166321D+04
    0.172800000000D+06-0.182539224625D-06 0.249429879328D+01-0.949949026108D-07
    0.975909610735D+00 0.150843750000D+03-0.531064726326D+00-0.780425364992D-08
   -0.137862885400D-09 0.100000000000D+01 0.183600000000D+04 0.000000000000D+00
    0.200000000000D+01 0.000000000000D+00-0.135041773319D-07 0.800000000000D+02
    0.167190000000D+06 0.400000000000D+01 0.000000000000D+00 0.000000000000D+00
32 15  3 17  0  0  0.0-0.199570786208D-03 0.932232069317D-11 0.000000000000D+00
    0.830000000000D+02 0.483125000000D+02 0.500449417156D-08-0.114002339768D+01
    0.244379043579D-05 0.112964889268D-01 0.726245343685D-05 0.515356087494D+04
    0.172800000000D+06 0.260770320892D-07 0.449539199809D+00-0.201165676117D-06
    0.947391014638D+00 0.232437500000D+03 0.309677301588D-01-0.835249077191D-08
    0.567523639638D-09 0.100000000000D+01 0.183600000000D+04 0.000000000000D+00
    0.200000000000D+01 0.000000000000D+00-0.372529029846D-08 0.830000000000D+02
    0.165618000000D+06 0.400000000000D+01 0.000000000000D+00 0.000000000000D+00
